SL-16 R/B               
1 19120U 88039B   17003.43894418 -.00000062  00000-0 -66638-5 0  9997
2 19120  71.0159 313.0227 0019522  79.6905 280.6420 14.19163957483015
COSMOS 1953             
1 19210U 88050A   17002.82794337  .00000067  00000-0  26048-5 0  9995
2 19210  82.5163 193.6823 0014944 103.9782 256.3108 15.05096806552966
SL-8 R/B                
1 19257U 88053B   17002.92280324 -.00000061  00000-0 -11596-4 0  9993
2 19257  74.0467 160.3576 0019386  92.2603  23.1910 14.37341034495027
COSMOS 1975             
1 19573U 88093A   17003.08354530  .00000376  00000-0  25031-4 0  9993
2 19573  82.5209 145.2006 0015548 137.7304 222.5124 15.04004902534992
SL-14 R/B               
1 19574U 88093B   17002.32266368  .00000106  00000-0  10011-4 0  9994
2 19574  82.5335 300.1282 0020409 306.1337 167.5780 14.83196622524869
SL-16 R/B               
1 19650U 88102B   17002.53535583  .00000125  00000-0  87983-4 0  9994
2 19650  70.9980   3.4149 0012010  72.5269 287.7166 14.15750205452549
INTERCOSMOS 24          
1 20261U 89080A   17002.39392270  .00000007  00000-0 -77412-5 0  9995
2 20261  82.5948 117.3672 1204818 119.0701 253.6445 12.55852835245159
SL-14 R/B               
1 20262U 89080C   17003.06446446  .00000040  00000-0  11805-4 0  9995
2 20262  82.5937 161.8518 1236475 273.0116  73.0515 12.48840730241102
DELTA 1 R/B             
1 20323U 89089B   17002.91770408  .00000013  00000-0  12540-4 0  9990
2 20323  97.0870 335.0575 0070512 239.8328 119.5870 14.48169669430801
DELTA 2 R/B(1)          
1 20453U 90008B   17003.16215595  .00002371  00000-0  13709-3 0  9992
2 20453  35.6267 119.4993 0291951 236.3052 120.9507 14.82677428423696
COSMOS 2058             
1 20465U 90010A   17003.16939711  .00000245  00000-0  18660-4 0  9991
2 20465  82.4890  46.5097 0016967 127.4212 232.8558 14.97397041460647
SL-14 R/B               
1 20466U 90010B   17003.54919920  .00000101  00000-0  98962-5 0  9999
2 20466  82.5026 166.6485 0021165 155.5912 204.6309 14.81260145453123
SL-14 R/B               
1 20511U 90018B   17002.39105640  .00000069  00000-0  61324-5 0  9991
2 20511  82.5242 108.5131 0016124 299.2207 125.6364 14.79919233447547
HST                     
1 20580U 90037B   17003.23828444  .00000552  00000-0  23156-4 0  9993
2 20580  28.4711  17.3600 0002693 193.1695 266.4601 15.08636579265346
SL-16 R/B               
1 20625U 90046B   17003.52025015  .00000015  00000-0  32327-4 0  9992
2 20625  70.9999 134.7384 0014714 348.2031  11.8745 14.14614380374550
COSMOS 2084             
1 20663U 90055A   17003.16511966  .00000011  00000-0  19028-4 0  9998
2 20663  62.7928  58.8555 0137435  73.8258 287.7910 14.91444128435199
SL-6 R/B(2)             
1 20666U 90055D   17003.19913473  .00000027  00000-0  20260-4 0  9990
2 20666  62.7844 337.9750 0136488  92.9444 268.7278 14.91804033436566
SL-8 R/B                
1 20775U 90078B   17002.99034682  .00003003  00000-0  14782-3 0  9997
2 20775  82.9280 183.5065 0593003 130.7117 234.7169 14.29889234325158
SL-8 R/B                
1 21088U 91006B   17002.85115278 -.00000018  00000-0 -33684-4 0  9991
2 21088  82.9428 143.1495 0023554  64.9230  98.9398 13.77036151302841
OKEAN-3                 
1 21397U 91039A   17003.19071158  .00000308  00000-0  27432-4 0  9990
2 21397  82.5233 295.1189 0019574  70.5626 289.7707 14.92388317385174
COSMOS 2151             
1 21422U 91042A   17003.19445855  .00000200  00000-0  17262-4 0  9993
2 21422  82.4998  43.4540 0015680 122.4510 237.8228 14.91756638383903
SL-14 R/B               
1 21423U 91042B   17002.85677791  .00000072  00000-0  65057-5 0  9995
2 21423  82.4951 115.9211 0019092  73.6509 286.6802 14.79672360378133
ERS-1                   
1 21574U 91050A   17002.82113213  .00000074  00000-0  38880-4 0  9997
2 21574  98.4406 312.7885 0034185  88.8270 271.6833 14.37549171333832
ARIANE 40 R/B           
1 21610U 91050F   17002.33633206  .00000000  00000-0  14245-4 0  9991
2 21610  98.6299  57.6769 0004245  84.1687 334.5748 14.40777909336233
INTERCOSMOS 25          
1 21819U 91086A   17002.48904248  .00000356  00000-0  61308-4 0  9990
2 21819  82.5528 162.6989 1526411  79.5024 297.3836 12.04417135 92334
SL-14 R/B               
1 21820U 91086B   17002.50147893  .00000128  00000-0  26062-4 0  9995
2 21820  82.5601 216.1977 1576566 261.0680  80.9369 11.93251950 87027
SL-8 R/B                
1 21876U 92008B   17002.78703521  .00000005  00000-0 -10791-4 0  9994
2 21876  82.9263 240.1251 0035567 134.4886 294.8033 13.75597437248645
SL-8 R/B                
1 21938U 92020B   17002.46958852  .00000084  00000-0  71969-4 0  9991
2 21938  82.9310 123.5037 0027934 295.2907 134.2140 13.75258881240513
SL-16 R/B               
1 22220U 92076B   17002.79701262 -.00000072  00000-0 -12374-4 0  9998
2 22220  71.0007  47.3868 0012478 176.0568 293.8208 14.16410690247351
SL-16 R/B               
1 22285U 92093B   17003.52237212 -.00000273  00000-0 -11634-3 0  9999
2 22285  71.0193 197.7053 0004111 345.9536  14.1472 14.15002508239241
COSMOS 2228             
1 22286U 92094A   17002.85116006  .00000243  00000-0  23968-4 0  9992
2 22286  82.5206 169.9744 0019508 313.1995  46.7591 14.87587058297912
SL-16 R/B               
1 22566U 93016B   17003.20410708 -.00000283  00000-0 -12148-3 0  9997
2 22566  71.0081  53.2356 0009605  10.1490 349.9824 14.14943115227934
COSMOS 2242             
1 22626U 93024A   17003.54270248  .00000235  00000-0  23125-4 0  9996
2 22626  82.5207 197.0213 0018007 310.4340  49.5306 14.87588542281671
SL-16 R/B               
1 22803U 93059B   17003.08212503 -.00000169  00000-0 -60075-4 0  9993
2 22803  70.9895 237.3477 0019660 276.3899  83.4986 14.16761346204894
ARIANE 40 R/B           
1 22830U 93061H   17002.89821539 -.00000065  00000-0 -69405-5 0  9991
2 22830  98.8886  14.4812 0011709  53.6011   9.1830 14.31413639214607
COSMOS 2278             
1 23087U 94023A   17003.20111608  .00000126  00000-0  91273-4 0  9993
2 23087  71.0527 343.8006 0007042 114.3377 245.8481 14.13727504171170
SL-16 R/B               
1 23088U 94023B   17002.88294037 -.00000205  00000-0 -81778-4 0  9994
2 23088  71.0009 269.0033 0004598 317.7251  42.3516 14.14652733172169
SL-16 R/B               
1 23343U 94074B   17003.14006608 -.00000035  00000-0  25544-5 0  9999
2 23343  98.1739  38.3926 0005812 236.1358 168.4703 14.76684764192474
SL-16 R/B               
1 23405U 94077B   17002.52648063  .00000137  00000-0  95388-4 0  9993
2 23405  70.9808 203.6973 0004287 237.0588 123.0122 14.15187580142077
ERS-2                   
1 23560U 95021A   17002.97268902  .00001263  00000-0  62500-4 0  9995
2 23560  98.5388 333.3491 0004549 132.0742 228.0877 15.20078454150282
ARIANE 40+ R/B          
1 23561U 95021B   17002.08391206  .00000027  00000-0  24282-4 0  9994
2 23561  98.7856 359.5098 0007591  37.2923   4.2999 14.37788098137389
SL-16 R/B               
1 23705U 95058B   17003.18309286 -.00000084  00000-0 -18571-4 0  9992
2 23705  71.0209  15.2214 0013186 200.2511 159.8091 14.15096872 93843
SL-16 R/B               
1 24298U 96051B   17003.14632168  .00000083  00000-0  71328-4 0  9994
2 24298  70.8453  49.9092 0012427  69.0630 291.1819 14.12468632 48513
ORBVIEW 2 (SEASTAR)     
1 24883U 97037A   17001.91122548  .00000028  00000-0  25988-4 0  9998
2 24883  98.5325 112.8921 0001636 214.1210 145.9869 14.33362968 27837
SL-16 R/B               
1 25400U 98043G   17002.06179045 -.00000000  00000-0  17633-4 0  9992
2 25400  98.4675 315.7832 0010926  64.6264 295.6047 14.25400254961407
SL-16 R/B               
1 25407U 98045B   17003.17251882  .00000224  00000-0  13837-3 0  9992
2 25407  71.0114  28.2039 0005522 102.4636 257.7105 14.15756583952822
ISS (ZARYA)             
1 25544U 98067A   17003.37552484  .00002115  00000-0  39413-4 0  9992
2 25544  51.6433 139.9047 0007179  47.1118  49.6816 15.53978554 36121
SL-8 R/B                
1 25723U 99022C   17002.36448699  .00006918  00000-0  12067-3 0  9993
2 25723  48.4183 330.0069 0011024 316.3065  43.7005 15.51744134980722
CZ-4B R/B               
1 25732U 99025C   17003.09021988 -.00000028  00000-0  87541-5 0  9993
2 25732  98.9856   2.8859 0037031 199.8583 201.6949 14.17623367913245
OKEAN-O                 
1 25860U 99039A   17003.05307117  .00000048  00000-0  14560-4 0  9998
2 25860  98.1687 345.8430 0000961  67.1719 292.9591 14.76437670939469
SL-16 R/B               
1 25861U 99039B   17002.89084414  .00000027  00000-0  11055-4 0  9995
2 25861  98.0827 333.3134 0014392 252.7184 160.1136 14.78378386941351
TERRA                   
1 25994U 99068A   17003.12333121  .00000025  00000-0  15686-4 0  9995
2 25994  98.2039  80.5184 0000795 114.2349 245.8942 14.57118758906638
SL-14 R/B               
1 26874U 01032B   17003.16628520  .00045433 -38997-6  11348-3 0  9996
2 26874  82.4540  60.7849 0005763 143.4968 216.6701 15.95552296867364
ENVISAT                 
1 27386U 02009A   17003.18751599  .00000016  00000-0  18992-4 0  9993
2 27386  98.2560  55.1509 0001207  82.3922 277.7409 14.37885586777360
IDEFIX & ARIANE 42P R/B 
1 27422U 02021B   17001.61291050 -.00000057  00000-0 -63419-5 0  9997
2 27422  98.2275  11.1279 0012647  15.7143 344.4430 14.29252797762885
AQUA                    
1 27424U 02022A   17001.92013146  .00000138  00000-0  40660-4 0  9992
2 27424  98.2211 305.5675 0000428  45.7126  26.2662 14.57110630780012
CZ-4B R/B               
1 27432U 02024C   17002.02705645 -.00000016  00000-0  15042-4 0  9999
2 27432  98.9656 334.8453 0051060 141.7316 268.9677 14.14032929755319
MIDORI II (ADEOS-II)    
1 27597U 02056A   17002.04619275  .00000054  00000-0  38942-4 0  9996
2 27597  98.3475 338.8700 0002107  92.5114 267.6309 14.27258577731720
H-2A R/B                
1 27601U 02056E   17002.21971818  .00000037  00000-0  28699-4 0  9994
2 27601  98.3982  75.5861 0073199  67.9571 355.4209 14.31756070734065
